{
    "links": {
        "self": "http://www.neowsapp.com/rest/v1/neo/3560918?api_key=iIulBulltgU6a56xZRHN4H3l9WmuAYTsLGpBGhQ2"
    },
    "id": "3560918",
    "neo_reference_id": "3560918",
    "name": "(2011 GD)",
    "designation": "2011 GD",
    "nasa_jpl_url": "http://ssd.jpl.nasa.gov/sbdb.cgi?sstr=3560918",
    "absolute_magnitude_h": 24.7,
    "estimated_diameter": {
        "kilometers": {
            "estimated_diameter_min": 0.0305179233,
            "estimated_diameter_max": 0.0682401509
        },
        "meters": {
            "estimated_diameter_min": 30.5179232594,
            "estimated_diameter_max": 68.2401509401
        },
        "miles": {
            "estimated_diameter_min": 0.0189629525,
            "estimated_diameter_max": 0.0424024508
        },
        "feet": {
            "estimated_diameter_min": 100.1244233463,
            "estimated_diameter_max": 223.8850168104
        }
    },
    "is_potentially_hazardous_asteroid": false,
    "close_approach_data": [
        {
            "close_approach_date": "2011-03-23",
            "close_approach_date_full": "2011-Mar-23 14:23",
            "epoch_date_close_approach": 1300890180000,
            "relative_velocity": {
                "kilometers_per_second": "10.3922576065",
                "kilometers_per_hour": "37412.1273834652",
                "miles_per_hour": "23246.4410400203"
            },
            "miss_distance": {
                "astronomical": "0.0203067055",
                "lunar": "7.8993084395",
                "kilometers": "3037839.889517285",
                "miles": "1887626.176957133"
            },
            "orbiting_body": "Earth"
        },
        {
            "close_approach_date": "2013-12-02",
            "close_approach_date_full": "2013-Dec-02 05:21",
            "epoch_date_close_approach": 1385961660000,
            "relative_velocity": {
                "kilometers_per_second": "24.0200288912",
                "kilometers_per_hour": "86472.1040081789",
                "miles_per_hour": "53730.4026266376"
            },
            "miss_distance": {
                "astronomical": "0.4664325735",
                "lunar": "181.4422710915",
                "kilometers": "69777319.494218445",
                "miles": "43357615.814346741"
            },
            "orbiting_body": "Earth"
        },
        {
            "close_approach_date": "2036-12-04",
            "close_approach_date_full": "2036-Dec-04 00:14",
            "epoch_date_close_approach": 2111962440000,
            "relative_velocity": {
                "kilometers_per_second": "22.804661554",
                "kilometers_per_hour": "82096.7815944529",
                "miles_per_hour": "51011.7474301755"
            },
            "miss_distance": {
                "astronomical": "0.4185995225",
                "lunar": "162.8352142525",
                "kilometers": "62621596.949017075",
                "miles": "38911256.005202635"
            },
            "orbiting_body": "Earth"
        }
    ],
    "orbital_data": {
        "orbit_id": "11",
        "orbit_determination_date": "2017-04-06 08:53:54",
        "first_observation_date": "2011-04-01",
        "last_observation_date": "2011-04-13",
        "data_arc_in_days": 12,
        "observations_used": 45,
        "orbit_uncertainty": "8",
        "minimum_orbit_intersection": ".0182734",
        "jupiter_tisserand_invariant": "3.615",
        "epoch_osculation": "2455656.5",
        "eccentricity": ".5447259104579179",
        "semi_major_axis": "2.023500937175689",
        "inclination": "4.06804114496223",
        "ascending_node_longitude": "195.2687735773578",
        "orbital_period": "1051.36506400371",
        "perihelion_distance": ".9212475468602118",
        "perihelion_argument": "306.2843080399607",
        "aphelion_distance": "3.125754327491166",
        "perihelion_time": "2455613.117686737095",
        "mean_anomaly": "14.85462405909913",
        "mean_motion": ".3424119864027837",
        "equinox": "J2000",
        "orbit_class": {
            "orbit_class_type": "APO",
            "orbit_class_description": "Near-Earth asteroid orbits which cross the Earth’s orbit similar to that of 1862 Apollo",
            "orbit_class_range": "a (semi-major axis) > 1.0 AU; q (perihelion) < 1.017 AU"
        }
    },
    "is_sentry_object": false
}